start=new Date('2022-03-28T00:00:00.000Z').valueOf();
sats=[{"CLASSIFICATION_TYPE":"U","INCLINATION":"53.2177","MEAN_MOTION":"15.51128958","GP_ID":"199836996","CENTER_NAME":"EARTH","COUNTRY_CODE":"US","ELEMENT_SET_NO":"999","MEAN_ELEMENT_THEORY":"SGP4","PERIOD":"92.836","MEAN_MOTION_DOT":"-0.00725019","RA_OF_ASC_NODE":"299.8743","PERIAPSIS":"412.249","ECCENTRICITY":"0.00017400","REF_FRAME":"TEME","REV_AT_EPOCH":"1198","OBJECT_NAME":"STARLINK-3368","OBJECT_ID":"2022-005D","NORAD_CAT_ID":"51107","TIME_SYSTEM":"UTC","EPOCH":"2022-03-27T22:00:01.999584","RCS_SIZE":"LARGE","OBJECT_TYPE":"PAYLOAD","LAUNCH_DATE":"2022-01-19","FILE":"3376856","ARG_OF_PERICENTER":"33.4967","MEAN_MOTION_DDOT":"0.0000000000000","TLE_LINE1":"1 51107U 22005D   22086.91668981 -.00725019  00000-0 -13199-1 0  9999","TLE_LINE2":"2 51107  53.2177 299.8743 0001740  33.4967  20.1074 15.51128958 11985","MEAN_ANOMALY":"20.1074","SEMIMAJOR_AXIS":"6791.566","BSTAR":"-0.01319900000000","DECAY_DATE":null,"EPHEMERIS_TYPE":"0","APOAPSIS":"414.612","SITE":"AFETR"},{"MEAN_MOTION_DOT":"-0.00011876","PERIOD":"91.532","MEAN_ELEMENT_THEORY":"SGP4","ELEMENT_SET_NO":"999","REV_AT_EPOCH":"1199","OBJECT_NAME":"STARLINK-3362","PERIAPSIS":"347.644","RA_OF_ASC_NODE":"298.6233","ECCENTRICITY":"0.00030640","REF_FRAME":"TEME","GP_ID":"199837244","MEAN_MOTION":"15.73219322","INCLINATION":"53.2137","CENTER_NAME":"EARTH","COUNTRY_CODE":"US","CLASSIFICATION_TYPE":"U","EPHEMERIS_TYPE":"0","SITE":"AFETR","APOAPSIS":"351.766","MEAN_MOTION_DDOT":"0.0000000000000","DECAY_DATE":null,"BSTAR":"-0.00008020700000","SEMIMAJOR_AXIS":"6727.840","TLE_LINE2":"2 51108  53.2137 298.6233 0003064  13.6865 255.9874 15.73219322 11998","MEAN_ANOMALY":"255.9874","TLE_LINE1":"1 51108U 22005E   22086.91668981 -.00011876  00000-0 -80207-4 0  9996","LAUNCH_DATE":"2022-01-19","OBJECT_TYPE":"PAYLOAD","FILE":"3376856","ARG_OF_PERICENTER":"13.6865","OBJECT_ID":"2022-005E","RCS_SIZE":"LARGE","EPOCH":"2022-03-27T22:00:01.999584","TIME_SYSTEM":"UTC","NORAD_CAT_ID":"51108"},{"INCLINATION":"53.2176","GP_ID":"199866079","MEAN_MOTION":"15.63713414","CENTER_NAME":"EARTH","COUNTRY_CODE":"US","MEAN_ELEMENT_THEORY":"SGP4","PERIOD":"92.088","ELEMENT_SET_NO":"999","MEAN_MOTION_DOT":"-0.00426946","REV_AT_EPOCH":"370","OBJECT_NAME":"STARLINK-3358","PERIAPSIS":"375.651","REF_FRAME":"TEME","RA_OF_ASC_NODE":"298.2094","ECCENTRICITY":"0.00019130","CLASSIFICATION_TYPE":"U","MEAN_MOTION_DDOT":"0.0000000000000","SEMIMAJOR_AXIS":"6755.078","TLE_LINE2":"2 51109  53.2176 298.2094 0001913  29.8554  50.5148 15.63713414  3701","MEAN_ANOMALY":"50.5148","TLE_LINE1":"1 51109U 22005F   22086.91668981 -.00426946  00000-0 -47241-2 0  9994","DECAY_DATE":null,"BSTAR":"-0.00472410000000","EPHEMERIS_TYPE":"0","SITE":"AFETR","APOAPSIS":"378.236","OBJECT_ID":"2022-005F","TIME_SYSTEM":"UTC","NORAD_CAT_ID":"51109","RCS_SIZE":"LARGE","EPOCH":"2022-03-27T22:00:01.999584","OBJECT_TYPE":"PAYLOAD","LAUNCH_DATE":"2022-01-19","ARG_OF_PERICENTER":"29.8554","FILE":"3377053"},{"EPOCH":"2022-03-27T22:00:01.999584","RCS_SIZE":"LARGE","TIME_SYSTEM":"UTC","NORAD_CAT_ID":"51110","OBJECT_ID":"2022-005G","FILE":"3376857","ARG_OF_PERICENTER":"10.0687","LAUNCH_DATE":"2022-01-19","OBJECT_TYPE":"PAYLOAD","DECAY_DATE":null,"BSTAR":"0.00042453000000","SEMIMAJOR_AXIS":"6727.933","MEAN_ANOMALY":"260.7658","TLE_LINE2":"2 51110  53.2137 298.6201 0003391  10.0687 260.7658 15.73186745 12001","TLE_LINE1":"1 51110U 22005G   22086.91668981  .00059360  00000-0  42453-3 0  9997","MEAN_MOTION_DDOT":"0.0000000000000","APOAPSIS":"352.079","SITE":"AFETR","EPHEMERIS_TYPE":"0","CLASSIFICATION_TYPE":"U","COUNTRY_CODE":"US","CENTER_NAME":"EARTH","GP_ID":"199837010","MEAN_MOTION":"15.73186745","INCLINATION":"53.2137","OBJECT_NAME":"STARLINK-3344","REV_AT_EPOCH":"1200","PERIAPSIS":"347.517","RA_OF_ASC_NODE":"298.6201","ECCENTRICITY":"0.00033910","REF_FRAME":"TEME","MEAN_MOTION_DOT":"0.00059360","MEAN_ELEMENT_THEORY":"SGP4","PERIOD":"91.534","ELEMENT_SET_NO":"999"},{"CLASSIFICATION_TYPE":"U","MEAN_ELEMENT_THEORY":"SGP4","PERIOD":"91.534","ELEMENT_SET_NO":"999","MEAN_MOTION_DOT":"0.00065258","OBJECT_NAME":"STARLINK-3173","REV_AT_EPOCH":"1200","PERIAPSIS":"347.328","REF_FRAME":"TEME","RA_OF_ASC_NODE":"298.6101","ECCENTRICITY":"0.00036450","INCLINATION":"53.2135","GP_ID":"199837003","MEAN_MOTION":"15.73193035","CENTER_NAME":"EARTH","COUNTRY_CODE":"US","OBJECT_TYPE":"PAYLOAD","LAUNCH_DATE":"2022-01-19","FILE":"3376857","ARG_OF_PERICENTER":"9.4367","OBJECT_ID":"2022-005H","TIME_SYSTEM":"UTC","NORAD_CAT_ID":"51111","EPOCH":"2022-03-27T22:00:01.999584","RCS_SIZE":"LARGE","EPHEMERIS_TYPE":"0","SITE":"AFETR","APOAPSIS":"352.232","MEAN_MOTION_DDOT":"0.0000000000000","SEMIMAJOR_AXIS":"6727.915","TLE_LINE1":"1 51111U 22005H   22086.91668981  .00065258  00000-0  46580-3 0  9996","TLE_LINE2":"2 51111  53.2135 298.6101 0003645   9.4367 265.8489 15.73193035 12006","MEAN_ANOMALY":"265.8489","DECAY_DATE":null,"BSTAR":"0.00046580000000"},{"FILE":"3376857","ARG_OF_PERICENTER":"11.1725","OBJECT_TYPE":"PAYLOAD","LAUNCH_DATE":"2022-01-19","TIME_SYSTEM":"UTC","NORAD_CAT_ID":"51112","EPOCH":"2022-03-27T22:00:01.999584","RCS_SIZE":"LARGE","OBJECT_ID":"2022-005J","APOAPSIS":"352.190","SITE":"AFETR","EPHEMERIS_TYPE":"0","SEMIMAJOR_AXIS":"6727.924","MEAN_ANOMALY":"260.3028","TLE_LINE2":"2 51112  53.2134 298.6169 0003568  11.1725 260.3028 15.73189778 12000","TLE_LINE1":"1 51112U 22005J   22086.91668981  .00063733  00000-0  45517-3 0  9992","DECAY_DATE":null,"BSTAR":"0.00045517000000","MEAN_MOTION_DDOT":"0.0000000000000","CLASSIFICATION_TYPE":"U","OBJECT_NAME":"STARLINK-3374","REV_AT_EPOCH":"1200","PERIAPSIS":"347.389","REF_FRAME":"TEME","RA_OF_ASC_NODE":"298.6169","ECCENTRICITY":"0.00035680","MEAN_ELEMENT_THEORY":"SGP4","PERIOD":"91.534","ELEMENT_SET_NO":"999","MEAN_MOTION_DOT":"0.00063733","COUNTRY_CODE":"US","CENTER_NAME":"EARTH","INCLINATION":"53.2134","GP_ID":"199837260","MEAN_MOTION":"15.73189778"},{"MEAN_MOTION_DDOT":"0.0000000000000","SEMIMAJOR_AXIS":"6727.786","TLE_LINE2":"2 51113  53.2140 298.6159 0002963  12.8880 260.4567 15.73238459 12005","MEAN_ANOMALY":"260.4567","TLE_LINE1":"1 51113U 22005K   22086.91668981 -.00025251  00000-0 -17568-3 0  9993","DECAY_DATE":null,"BSTAR":"-0.00017568000000","EPHEMERIS_TYPE":"0","APOAPSIS":"351.644","SITE":"AFETR","OBJECT_ID":"2022-005K","TIME_SYSTEM":"UTC","NORAD_CAT_ID":"51113","EPOCH":"2022-03-27T22:00:01.999584","RCS_SIZE":"LARGE","OBJECT_TYPE":"PAYLOAD","LAUNCH_DATE":"2022-01-19","ARG_OF_PERICENTER":"12.8880","FILE":"3376857","INCLINATION":"53.2140","GP_ID":"199837008","MEAN_MOTION":"15.73238459","COUNTRY_CODE":"US","CENTER_NAME":"EARTH","PERIOD":"91.531","MEAN_ELEMENT_THEORY":"SGP4","ELEMENT_SET_NO":"999","MEAN_MOTION_DOT":"-0.00025251","REV_AT_EPOCH":"1200","OBJECT_NAME":"STARLINK-3372","PERIAPSIS":"347.657","RA_OF_ASC_NODE":"298.6159","REF_FRAME":"TEME","ECCENTRICITY":"0.00029630","CLASSIFICATION_TYPE":"U"},{"SITE":"AFETR","APOAPSIS":"352.087","EPHEMERIS_TYPE":"0","MEAN_ANOMALY":"263.6033","TLE_LINE2":"2 51114  53.2140 298.6230 0003689   6.6022 263.6033 15.73254325 12004","TLE_LINE1":"1 51114U 22005L   22086.91668981 -.00041038  00000-0 -28858-3 0  9999","SEMIMAJOR_AXIS":"6727.740","BSTAR":"-0.00028858000000","DECAY_DATE":null,"MEAN_MOTION_DDOT":"0.0000000000000","FILE":"3376859","ARG_OF_PERICENTER":"6.6022","OBJECT_TYPE":"PAYLOAD","LAUNCH_DATE":"2022-01-19","NORAD_CAT_ID":"51114","TIME_SYSTEM":"UTC","RCS_SIZE":"LARGE","EPOCH":"2022-03-27T22:00:01.999584","OBJECT_ID":"2022-005L","ECCENTRICITY":"0.00036890","PERIAPSIS":"347.123","RA_OF_ASC_NODE":"298.6230","REF_FRAME":"TEME","OBJECT_NAME":"STARLINK-3375","REV_AT_EPOCH":"1200","ELEMENT_SET_NO":"999","MEAN_ELEMENT_THEORY":"SGP4","PERIOD":"91.530","MEAN_MOTION_DOT":"-0.00041038","COUNTRY_CODE":"US","CENTER_NAME":"EARTH","INCLINATION":"53.2140","MEAN_MOTION":"15.73254325","GP_ID":"199837029","CLASSIFICATION_TYPE":"U"},{"CLASSIFICATION_TYPE":"U","GP_ID":"199837013","MEAN_MOTION":"15.73187402","INCLINATION":"53.2139","CENTER_NAME":"EARTH","COUNTRY_CODE":"US","MEAN_MOTION_DOT":"0.00062129","PERIOD":"91.534","MEAN_ELEMENT_THEORY":"SGP4","ELEMENT_SET_NO":"999","REV_AT_EPOCH":"1200","OBJECT_NAME":"STARLINK-3397","RA_OF_ASC_NODE":"298.6122","PERIAPSIS":"347.568","ECCENTRICITY":"0.00033120","REF_FRAME":"TEME","OBJECT_ID":"2022-005M","EPOCH":"2022-03-27T22:00:01.999584","RCS_SIZE":"LARGE","TIME_SYSTEM":"UTC","NORAD_CAT_ID":"51115","LAUNCH_DATE":"2022-01-19","OBJECT_TYPE":"PAYLOAD","FILE":"3376857","ARG_OF_PERICENTER":"13.8235","MEAN_MOTION_DDOT":"0.0000000000000","DECAY_DATE":null,"BSTAR":"0.00044397000000","SEMIMAJOR_AXIS":"6727.931","MEAN_ANOMALY":"260.8079","TLE_LINE2":"2 51115  53.2139 298.6122 0003312  13.8235 260.8079 15.73187402 12002","TLE_LINE1":"1 51115U 22005M   22086.91668981  .00062129  00000-0  44397-3 0  9998","EPHEMERIS_TYPE":"0","APOAPSIS":"352.024","SITE":"AFETR"},{"OBJECT_ID":"2022-005N","EPOCH":"2022-03-27T22:00:01.999584","RCS_SIZE":"LARGE","NORAD_CAT_ID":"51116","TIME_SYSTEM":"UTC","LAUNCH_DATE":"2022-01-19","OBJECT_TYPE":"PAYLOAD","ARG_OF_PERICENTER":"12.2019","FILE":"3376859","MEAN_MOTION_DDOT":"0.0000000000000","BSTAR":"-0.00005722600000","DECAY_DATE":null,"MEAN_ANOMALY":"259.8849","TLE_LINE2":"2 51116  53.2118 298.6167 0003113  12.2019 259.8849 15.73222047 12009","TLE_LINE1":"1 51116U 22005N   22086.91668981 -.00008656  00000-0 -57226-4 0  9992","SEMIMAJOR_AXIS":"6727.832","EPHEMERIS_TYPE":"0","SITE":"AFETR","APOAPSIS":"351.792","CLASSIFICATION_TYPE":"U","MEAN_MOTION":"15.73222047","GP_ID":"199837039","INCLINATION":"53.2118","COUNTRY_CODE":"US","CENTER_NAME":"EARTH","MEAN_MOTION_DOT":"-0.00008656","ELEMENT_SET_NO":"999","MEAN_ELEMENT_THEORY":"SGP4","PERIOD":"91.532","PERIAPSIS":"347.603","RA_OF_ASC_NODE":"298.6167","REF_FRAME":"TEME","ECCENTRICITY":"0.00031130","OBJECT_NAME":"STARLINK-3243","REV_AT_EPOCH":"1200"}];
